{"type": "FeatureCollection", "features": [ {"type": "Feature", "properties": {"norad_id": 35480, "name": "IRIDIUM 33 DEB", "group": "iridium-33-debris", "lat": -62.13688972991396, "lon": 21.171836663676565, "alt_km": 744.8449741804634, "timestamp": "2025-12-05T09:41:19.517019+00:00", "meta": {"OBJECT_NAME": "IRIDIUM 33 DEB", "OBJECT_ID": "1997-051QA", "EPOCH": "2025-12-01T21:29:27.496896", "MEAN_MOTION": 14.49686619, "ECCENTRICITY": 0.00155495, "INCLINATION": 86.3575, "RA_OF_ASC_NODE": 29.6125, "ARG_OF_PERICENTER": 136.7189, "MEAN_ANOMALY": 223.524, "EPHEMERIS_TYPE": 0, "CLASSIFICATION_TYPE": "U", "NORAD_CAT_ID": 35480, "ELEMENT_SET_NO": 999, "REV_AT_EPOCH": 86874, "BSTAR": 0.000651702, "MEAN_MOTION_DOT": 2.53e-05, "MEAN_MOTION_DDOT": 0}, "tle": {"line1": "1 35480U 97051QA  25335.89545714  .00002530  00000+0  65170-3 0  9994", "line2": "2 35480  86.3575  29.6125 0015549 136.7189 223.5240 14.49686619868745"}}, "geometry": {"type": "Point", "coordinates": [21.171836663676565, -62.13688972991396]}}, {"type": "Feature", "properties": {"norad_id": 35484, "name": "IRIDIUM 33 DEB", "group": "iridium-33-debris", "lat": -80.97852657694303, "lon": -160.20346372899624, "alt_km": 586.7849623996535, "timestamp": "2025-12-05T09:41:19.517029+00:00", "meta": {"OBJECT_NAME": "IRIDIUM 33 DEB", "OBJECT_ID": "1997-051QE", "EPOCH": "2025-12-01T19:32:14.692416", "MEAN_MOTION": 14.97587734, "ECCENTRICITY": 0.00218288, "INCLINATION": 86.3628, "RA_OF_ASC_NODE": 357.8533, "ARG_OF_PERICENTER": 162.6444, "MEAN_ANOMALY": 197.5538, "EPHEMERIS_TYPE": 0, "CLASSIFICATION_TYPE": "U", "NORAD_CAT_ID": 35484, "ELEMENT_SET_NO": 999, "REV_AT_EPOCH": 61852, "BSTAR": 0.0025030806, "MEAN_MOTION_DOT": 0.00029486, "MEAN_MOTION_DDOT": 0}, "tle": {"line1": "1 35484U 97051QE  25335.81405894  .00029486  00000+0  25031-2 0  9994", "line2": "2 35484  86.3628 357.8533 0021828 162.6444 197.5538 14.97587734618526"}}, "geometry": {"type": "Point", "coordinates": [-160.20346372899624, -80.97852657694303]}}, {"type": "Feature", "properties": {"norad_id": 35488, "name": "IRIDIUM 33 DEB", "group": "iridium-33-debris", "lat": 56.81981246745535, "lon": -50.0968718277411, "alt_km": 594.0807794684051, "timestamp": "2025-12-05T09:41:19.517039+00:00", "meta": {"OBJECT_NAME": "IRIDIUM 33 DEB", "OBJECT_ID": "1997-051QJ", "EPOCH": "2025-12-03T15:19:15.802176", "MEAN_MOTION": 14.8268507, "ECCENTRICITY": 0.00306986, "INCLINATION": 86.3233, "RA_OF_ASC_NODE": 305.0732, "ARG_OF_PERICENTER": 71.607, "MEAN_ANOMALY": 288.8486, "EPHEMERIS_TYPE": 0, "CLASSIFICATION_TYPE": "U", "NORAD_CAT_ID": 35488, "ELEMENT_SET_NO": 999, "REV_AT_EPOCH": 88131, "BSTAR": 0.0020184012, "MEAN_MOTION_DOT": 0.00016455, "MEAN_MOTION_DDOT": 0}, "tle": {"line1": "1 35488U 97051QJ  25337.63837734  .00016455  00000+0  20184-2 0  9998", "line2": "2 35488  86.3233 305.0732 0030698  71.6070 288.8486 14.82685070881318"}}, "geometry": {"type": "Point", "coordinates": [-50.0968718277411, 56.81981246745535]}}, {"type": "Feature", "properties": {"norad_id": 35616, "name": "IRIDIUM 33 DEB", "group": "iridium-33-debris", "lat": -68.7338099554045, "lon": 178.54128592946253, "alt_km": 628.8373401286981, "timestamp": "2025-12-05T09:41:19.517049+00:00", "meta": {"OBJECT_NAME": "IRIDIUM 33 DEB", "OBJECT_ID": "1997-051QN", "EPOCH": "2025-12-01T18:38:49.911648", "MEAN_MOTION": 14.81359224, "ECCENTRICITY": 0.00086191, "INCLINATION": 86.3548, "RA_OF_ASC_NODE": 350.7677, "ARG_OF_PERICENTER": 204.4295, "MEAN_ANOMALY": 155.6519, "EPHEMERIS_TYPE": 0, "CLASSIFICATION_TYPE": "U", "NORAD_CAT_ID": 35616, "ELEMENT_SET_NO": 999, "REV_AT_EPOCH": 87412, "BSTAR": 0.0016385024, "MEAN_MOTION_DOT": 0.00012841, "MEAN_MOTION_DDOT": 0}, "tle": {"line1": "1 35616U 97051QN  25335.77696657  .00012841  00000+0  16385-2 0  9994", "line2": "2 35616  86.3548 350.7677 0008619 204.4295 155.6519 14.81359224874125"}}, "geometry": {"type": "Point", "coordinates": [178.54128592946253, -68.7338099554045]}}, {"type": "Feature", "properties": {"norad_id": 35618, "name": "IRIDIUM 33 DEB", "group": "iridium-33-debris", "lat": 69.77802271819337, "lon": 6.712979656223851, "alt_km": 691.9026279956643, "timestamp": "2025-12-05T09:41:19.517060+00:00", "meta": {"OBJECT_NAME": "IRIDIUM 33 DEB", "OBJECT_ID": "1997-051QQ", "EPOCH": "2025-11-27T19:27:47.606688", "MEAN_MOTION": 14.52216193, "ECCENTRICITY": 0.00308317, "INCLINATION": 86.3414, "RA_OF_ASC_NODE": 0.0275, "ARG_OF_PERICENTER": 70.0508, "MEAN_ANOMALY": 290.4015, "EPHEMERIS_TYPE": 0, "CLASSIFICATION_TYPE": "U", "NORAD_CAT_ID": 35618, "ELEMENT_SET_NO": 999, "REV_AT_EPOCH": 65177, "BSTAR": 0.00046503481, "MEAN_MOTION_DOT": 1.919e-05, "MEAN_MOTION_DDOT": 0}, "tle": {"line1": "1 35618U 97051QQ  25331.81096767  .00001919  00000+0  46503-3 0  9993", "line2": "2 35618  86.3414   0.0275 0030831  70.0508 290.4015 14.52216193651771"}}, "geometry": {"type": "Point", "coordinates": [6.712979656223851, 69.77802271819337]}}, {"type": "Feature", "properties": {"norad_id": 35620, "name": "IRIDIUM 33 DEB", "group": "iridium-33-debris", "lat": 73.4379099506841, "lon": -127.19087337928208, "alt_km": 849.1046971427177, "timestamp": "2025-12-05T09:41:19.517070+00:00", "meta": {"OBJECT_NAME": "IRIDIUM 33 DEB", "OBJECT_ID": "1997-051QS", "EPOCH": "2025-12-03T22:15:44.389440", "MEAN_MOTION": 14.37533954, "ECCENTRICITY": 0.01447571, "INCLINATION": 86.3881, "RA_OF_ASC_NODE": 221.1686, "ARG_OF_PERICENTER": 287.9324, "MEAN_ANOMALY": 70.6136, "EPHEMERIS_TYPE": 0, "CLASSIFICATION_TYPE": "U", "NORAD_CAT_ID": 35620, "ELEMENT_SET_NO": 999, "REV_AT_EPOCH": 59839, "BSTAR": 0.012608603, "MEAN_MOTION_DOT": 0.00042859, "MEAN_MOTION_DDOT": 0}, "tle": {"line1": "1 35620U 97051QS  25337.92759710  .00042859  00000+0  12609-1 0  9994", "line2": "2 35620  86.3881 221.1686 0144757 287.9324  70.6136 14.37533954598392"}}, "geometry": {"type": "Point", "coordinates": [-127.19087337928208, 73.4379099506841]}}, {"type": "Feature", "properties": {"norad_id": 35622, "name": "IRIDIUM 33 DEB", "group": "iridium-33-debris", "lat": -33.69600422661719, "lon": 89.74992733967217, "alt_km": 569.242709709838, "timestamp": "2025-12-05T09:41:19.517081+00:00", "meta": {"OBJECT_NAME": "IRIDIUM 33 DEB", "OBJECT_ID": "1997-051QU", "EPOCH": "2025-12-03T06:17:03.782976", "MEAN_MOTION": 15.0277191, "ECCENTRICITY": 0.0010538, "INCLINATION": 86.2056, "RA_OF_ASC_NODE": 268.2648, "ARG_OF_PERICENTER": 2.3967, "MEAN_ANOMALY": 150.3951, "EPHEMERIS_TYPE": 0, "CLASSIFICATION_TYPE": "U", "NORAD_CAT_ID": 35622, "ELEMENT_SET_NO": 999, "REV_AT_EPOCH": 87217, "BSTAR": 0.0062141, "MEAN_MOTION_DOT": 0.00084066, "MEAN_MOTION_DDOT": 0}, "tle": {"line1": "1 35622U 97051QU  25337.26184934  .00084066  00000+0  62141-2 0  9996", "line2": "2 35622  86.2056 268.2648 0010538   2.3967 150.3951 15.02771910872179"}}, "geometry": {"type": "Point", "coordinates": [89.74992733967217, -33.69600422661719]}}, {"type": "Feature", "properties": {"norad_id": 35628, "name": "IRIDIUM 33 DEB", "group": "iridium-33-debris", "lat": -73.74686567530763, "lon": -0.2735480869450776, "alt_km": 675.6574904087029, "timestamp": "2025-12-05T09:41:19.517091+00:00", "meta": {"OBJECT_NAME": "IRIDIUM 33 DEB", "OBJECT_ID": "1997-051RA", "EPOCH": "2025-12-04T09:28:36.488064", "MEAN_MOTION": 14.67394134, "ECCENTRICITY": 0.001144, "INCLINATION": 86.3576, "RA_OF_ASC_NODE": 12.797, "ARG_OF_PERICENTER": 12.0998, "MEAN_ANOMALY": 348.0488, "EPHEMERIS_TYPE": 0, "CLASSIFICATION_TYPE": "U", "NORAD_CAT_ID": 35628, "ELEMENT_SET_NO": 999, "REV_AT_EPOCH": 86324, "BSTAR": 0.0032445, "MEAN_MOTION_DOT": 0.00018408, "MEAN_MOTION_DDOT": 0}, "tle": {"line1": "1 35628U 97051RA  25338.39486676  .00018408  00000+0  32445-2 0  9996", "line2": "2 35628  86.3576  12.7970 0011440  12.0998 348.0488 14.67394134863246"}}, "geometry": {"type": "Point", "coordinates": [-0.2735480869450776, -73.74686567530763]}}, {"type": "Feature", "properties": {"norad_id": 35631, "name": "IRIDIUM 33 DEB", "group": "iridium-33-debris", "lat": -5.399424207409586, "lon": 23.791131470519254, "alt_km": 748.8396993118604, "timestamp": "2025-12-05T09:41:19.517101+00:00", "meta": {"OBJECT_NAME": "IRIDIUM 33 DEB", "OBJECT_ID": "1997-051RD", "EPOCH": "2025-12-03T09:41:09.224736", "MEAN_MOTION": 14.47269337, "ECCENTRICITY": 0.00180664, "INCLINATION": 86.3684, "RA_OF_ASC_NODE": 24.9956, "ARG_OF_PERICENTER": 146.4986, "MEAN_ANOMALY": 234.0079, "EPHEMERIS_TYPE": 0, "CLASSIFICATION_TYPE": "U", "NORAD_CAT_ID": 35631, "ELEMENT_SET_NO": 999, "REV_AT_EPOCH": 87062, "BSTAR": 0.0005063782, "MEAN_MOTION_DOT": 1.875e-05, "MEAN_MOTION_DDOT": 0}, "tle": {"line1": "1 35631U 97051RD  25337.40357899  .00001875  00000+0  50638-3 0  9990", "line2": "2 35631  86.3684  24.9956 0018066 146.4986 234.0079 14.47269337870623"}}, "geometry": {"type": "Point", "coordinates": [23.791131470519254, -5.399424207409586]}}, {"type": "Feature", "properties": {"norad_id": 35680, "name": "IRIDIUM 33 DEB", "group": "iridium-33-debris", "lat": -56.17202804986832, "lon": 18.9336951317464, "alt_km": 722.1617215043134, "timestamp": "2025-12-05T09:41:19.517111+00:00", "meta": {"OBJECT_NAME": "IRIDIUM 33 DEB", "OBJECT_ID": "1997-051RJ", "EPOCH": "2025-12-01T22:00:09.279648", "MEAN_MOTION": 14.20616647, "ECCENTRICITY": 0.01501261, "INCLINATION": 86.103, "RA_OF_ASC_NODE": 26.3138, "ARG_OF_PERICENTER": 313.2693, "MEAN_ANOMALY": 168.1986, "EPHEMERIS_TYPE": 0, "CLASSIFICATION_TYPE": "U", "NORAD_CAT_ID": 35680, "ELEMENT_SET_NO": 999, "REV_AT_EPOCH": 60547, "BSTAR": 0.0036692718, "MEAN_MOTION_DOT": 8.864e-05, "MEAN_MOTION_DDOT": 0}, "tle": {"line1": "1 35680U 97051RJ  25335.91677407  .00008864  00000+0  36693-2 0  9997", "line2": "2 35680  86.1030  26.3138 0150126 313.2693 168.1986 14.20616647605475"}}, "geometry": {"type": "Point", "coordinates": [18.9336951317464, -56.17202804986832]}}]}